{"type": "FeatureCollection", "name": "rute", "crs": {"type": "name", "properties": {"name": "urn:ogc:def:crs:OGC:1.3:CRS84"}}, "features": [{"type": "Feature", "properties": {"trip_id": 1, "nama": "Trip 1", "kendaraan": "Truk engkel", "kode_kendaraan": "K-08", "trayek": "Tangerang – Jakarta", "arah": "Jakarta ke Tangerang", "hari": "Senin", "tanggal": "03-03-2025", "jam_mulai": "07:11", "jam_selesai": "08:46", "jam_berangkat": 7, "durasi_menit": 95.0, "kecepatan_rata": 21.4, "kecepatan_maks": 26.7, "jumlah_titik": 191, "jarak_km": 33.88, "liter_total": 6.94, "liter_jalan": 6.87, "liter_idle": 0.07, "menit_idle": 3.0, "liter_per_100km": 20.49, "km_per_liter": 4.88, "biaya_rp": 47200, "liter_boros": 1.73, "biaya_boros_rp": 11756, "jenis_bbm": "Biosolar", "harga_per_liter": 6800, "malam": false}, "geometry": {"type": "LineString", "coordinates": [[106.893704, -6.122585], [106.893363, -6.117563], [106.893055, -6.117611], [106.893532, -6.128896], [106.893235, -6.130594], [106.891943, -6.131078], [106.890481, -6.130416], [106.886262, -6.127711], [106.882813, -6.126373], [106.861682, -6.122148], [106.860116, -6.122284], [106.858394, -6.122796], [106.853033, -6.125193], [106.849879, -6.126227], [106.838842, -6.128895], [106.832062, -6.130104], [106.828451, -6.130391], [106.82026, -6.131751], [106.818859, -6.131563], [106.815915, -6.129977], [106.814545, -6.129574], [106.812922, -6.129631], [106.806304, -6.131283], [106.802672, -6.131917], [106.792781, -6.132363], [106.784275, -6.13114], [106.781503, -6.129902], [106.779935, -6.12865], [106.777662, -6.126251], [106.775093, -6.122303], [106.773389, -6.121635], [106.769799, -6.121498], [106.75931, -6.122598], [106.745876, -6.122153], [106.744248, -6.121788], [106.737377, -6.118876], [106.734215, -6.115807], [106.732866, -6.116573], [106.732514, -6.119241], [106.729965, -6.124506], [106.729732, -6.127311], [106.729937, -6.132363], [106.729704, -6.138528], [106.727318, -6.150516], [106.726954, -6.158431], [106.727169, -6.166277], [106.728298, -6.178407], [106.73004, -6.185872], [106.730393, -6.188873], [106.72966, -6.190065], [106.728314, -6.190703], [106.723536, -6.19066], [106.720281, -6.191606], [106.717363, -6.193144], [106.698685, -6.207677]]}}, {"type": "Feature", "properties": {"trip_id": 2, "nama": "Trip 2", "kendaraan": "Truk engkel", "kode_kendaraan": "K-08", "trayek": "Tangerang – Jakarta", "arah": "Jakarta ke Tangerang", "hari": "Senin", "tanggal": "03-03-2025", "jam_mulai": "13:18", "jam_selesai": "14:14", "jam_berangkat": 13, "durasi_menit": 56.5, "kecepatan_rata": 35.8, "kecepatan_maks": 42.1, "jumlah_titik": 114, "jarak_km": 33.73, "liter_total": 5.63, "liter_jalan": 5.63, "liter_idle": 0.0, "menit_idle": 0.0, "liter_per_100km": 16.7, "km_per_liter": 5.99, "biaya_rp": 38299, "liter_boros": 0.44, "biaya_boros_rp": 3007, "jenis_bbm": "Biosolar", "harga_per_liter": 6800, "malam": false}, "geometry": {"type": "LineString", "coordinates": [[106.89361, -6.121211], [106.893434, -6.118618], [106.89305, -6.117489], [106.893484, -6.12775], [106.893206, -6.130628], [106.890694, -6.130553], [106.886272, -6.127715], [106.881204, -6.126051], [106.8626, -6.122332], [106.859513, -6.122425], [106.852309, -6.125498], [106.849957, -6.126204], [106.839132, -6.128843], [106.833415, -6.129869], [106.828314, -6.130402], [106.819784, -6.131826], [106.817635, -6.131], [106.815566, -6.129846], [106.813068, -6.129621], [106.805152, -6.131519], [106.802193, -6.131985], [106.793725, -6.132325], [106.790734, -6.132181], [106.786065, -6.131521], [106.783894, -6.130987], [106.781676, -6.130036], [106.779828, -6.128537], [106.777932, -6.126536], [106.775316, -6.122454], [106.772377, -6.121596], [106.770068, -6.121508], [106.758798, -6.122628], [106.747185, -6.122201], [106.744095, -6.121724], [106.739235, -6.119663], [106.737074, -6.118638], [106.734874, -6.116555], [106.733014, -6.116169], [106.732711, -6.118759], [106.730375, -6.123339], [106.729821, -6.125854], [106.729883, -6.134466], [106.729564, -6.139848], [106.727442, -6.149929], [106.727003, -6.157668], [106.727203, -6.166649], [106.72815, -6.176822], [106.730238, -6.187298], [106.729681, -6.190032], [106.727069, -6.190756], [106.724696, -6.190563], [106.721786, -6.191083], [106.719041, -6.192199], [106.716944, -6.19347], [106.698685, -6.207677]]}}]}