{"type": "FeatureCollection", "name": "titik_ujung", "crs": {"type": "name", "properties": {"name": "urn:ogc:def:crs:OGC:1.3:CRS84"}}, "features": [{"type": "Feature", "properties": {"trip_id": 1, "jenis": "Titik Awal", "hari": "Senin", "waktu": "03-03-2025 07:11", "jarak_km": 33.88, "liter_total": 6.94, "biaya_rp": 47200}, "geometry": {"type": "Point", "coordinates": [106.893704, -6.122585]}}, {"type": "Feature", "properties": {"trip_id": 1, "jenis": "Titik Akhir", "hari": "Senin", "waktu": "03-03-2025 08:46", "jarak_km": 33.88, "liter_total": 6.94, "biaya_rp": 47200}, "geometry": {"type": "Point", "coordinates": [106.698685, -6.207677]}}, {"type": "Feature", "properties": {"trip_id": 2, "jenis": "Titik Awal", "hari": "Senin", "waktu": "03-03-2025 13:18", "jarak_km": 33.73, "liter_total": 5.63, "biaya_rp": 38299}, "geometry": {"type": "Point", "coordinates": [106.89361, -6.121211]}}, {"type": "Feature", "properties": {"trip_id": 2, "jenis": "Titik Akhir", "hari": "Senin", "waktu": "03-03-2025 14:14", "jarak_km": 33.73, "liter_total": 5.63, "biaya_rp": 38299}, "geometry": {"type": "Point", "coordinates": [106.698685, -6.207677]}}]}